STARLINK-5730           
1 55611U 23020AU  26068.12205072 -.00006108  00000+0 -43727-3 0  9998
2 55611  43.0058 354.7744 0001222 274.9357  85.1346 15.02553555168983
2024-205C               
1 61896U 24205C   26067.20867002  .00012247  00000+0  67177-3 0  9995
2 61896  97.4204 141.0161 0044383 341.9375  18.0277 15.13448144 72971
